SL-14 R/B               
1 21423U 91042B   25365.28510861  .00000808  00000+0  99282-4 0  9999
2 21423  82.4936 284.3343 0018541 104.4572 255.8701 14.81758844842940
ERS-1                   
1 21574U 91050A   25365.01922176  .00000640  00000+0  21941-3 0  9992
2 21574  98.7899  16.5307 0032738  47.3522 313.0416 14.39381368805859
ARIANE 40 R/B           
1 21610U 91050F   25365.16400588  .00000665  00000+0  21192-3 0  9992
2 21610  98.2140  54.9273 0001980 286.5569  73.5404 14.42830635809113
INTERCOSMOS 25          
1 21819U 91086A   25365.21163824  .00002582  00000+0  51425-3 0  9999
2 21819  82.6077 351.4022 1486137 264.5560  78.4827 12.11805600488390
SL-8 R/B                
1 21876U 92008B   25365.31601131  .00000167  00000+0  15585-3 0  9990
2 21876  82.9279 318.6295 0034019 327.8303 197.2531 13.75963493700016
SL-8 R/B                
1 21938U 92020B   25365.11159644  .00000238  00000+0  23095-3 0  9992
2 21938  82.9289 204.6745 0029953 127.7618 356.6972 13.75532702691707
USA 81                  
1 21949U 92023A   25364.98793846  .00000382  00000+0  13420-3 0  9990
2 21949  85.0086 171.0519 0001078 100.2057 259.9257 14.32335052 84952
COSMOS 2219             
1 22219U 92076A   25364.83386147  .00000450  00000+0  26087-3 0  9994
2 22219  71.0596 162.0084 0019813 301.9686  57.9510 14.14073347708648
SL-16 R/B               
1 22220U 92076B   25365.29377137 -.00000128  00000+0 -40111-4 0  9995
2 22220  71.0012 332.4474 0013897 209.1409 256.1258 14.16845773712141
COSMOS 2221             
1 22236U 92080A   25365.01349452  .00004221  00000+0  37474-3 0  9999
2 22236  82.5040 344.8328 0016204  66.1586 294.1332 14.95845867770525
SL-16 R/B               
1 22285U 92093B   25364.83582787 -.00000150  00000+0 -52623-4 0  9999
2 22285  71.0212 148.8090 0002806  18.3933 341.7291 14.15434850703414
COSMOS 2228             
1 22286U 92094A   25365.27523888  .00003942  00000+0  34086-3 0  9999
2 22286  82.5189 302.7990 0018221 166.5647 193.6065 14.96829110765823
