CCSDS_OMM_VERS = 2.0
CREATION_DATE  = 
ORIGINATOR     = 

OBJECT_NAME    = SL-14 R/B
OBJECT_ID      = 1991-042B
CENTER_NAME    = EARTH
REF_FRAME      = TEME
TIME_SYSTEM    = UTC
MEAN_ELEMENT_THEORY = SGP/SGP4

EPOCH          = 2025-12-31T06:50:33.383904
MEAN_MOTION    = 14.81758844
ECCENTRICITY   = .00185413
INCLINATION    = 82.4936
RA_OF_ASC_NODE = 284.3343
ARG_OF_PERICENTER = 104.4572
MEAN_ANOMALY   = 255.8701

EPHEMERIS_TYPE = 0
CLASSIFICATION_TYPE = U
NORAD_CAT_ID   = 21423
ELEMENT_SET_NO = 999
REV_AT_EPOCH   = 84294
BSTAR          = .99282201E-4
MEAN_MOTION_DOT = .808E-5
MEAN_MOTION_DDOT = 0

CCSDS_OMM_VERS = 2.0
CREATION_DATE  = 
ORIGINATOR     = 

OBJECT_NAME    = ERS-1
OBJECT_ID      = 1991-050A
CENTER_NAME    = EARTH
REF_FRAME      = TEME
TIME_SYSTEM    = UTC
MEAN_ELEMENT_THEORY = SGP/SGP4

EPOCH          = 2025-12-31T00:27:40.760064
MEAN_MOTION    = 14.39381368
ECCENTRICITY   = .00327382
INCLINATION    = 98.7899
RA_OF_ASC_NODE = 16.5307
ARG_OF_PERICENTER = 47.3522
MEAN_ANOMALY   = 313.0416

EPHEMERIS_TYPE = 0
CLASSIFICATION_TYPE = U
NORAD_CAT_ID   = 21574
ELEMENT_SET_NO = 999
REV_AT_EPOCH   = 80585
BSTAR          = .21941476E-3
MEAN_MOTION_DOT = .64E-5
MEAN_MOTION_DDOT = 0

CCSDS_OMM_VERS = 2.0
CREATION_DATE  = 
ORIGINATOR     = 

OBJECT_NAME    = ARIANE 40 R/B
OBJECT_ID      = 1991-050F
CENTER_NAME    = EARTH
REF_FRAME      = TEME
TIME_SYSTEM    = UTC
MEAN_ELEMENT_THEORY = SGP/SGP4

EPOCH          = 2025-12-31T03:56:10.108032
MEAN_MOTION    = 14.42830635
ECCENTRICITY   = .00019804
INCLINATION    = 98.2140
RA_OF_ASC_NODE = 54.9273
ARG_OF_PERICENTER = 286.5569
MEAN_ANOMALY   = 73.5404

EPHEMERIS_TYPE = 0
CLASSIFICATION_TYPE = U
NORAD_CAT_ID   = 21610
ELEMENT_SET_NO = 999
REV_AT_EPOCH   = 80911
BSTAR          = .21192172E-3
MEAN_MOTION_DOT = .665E-5
MEAN_MOTION_DDOT = 0

CCSDS_OMM_VERS = 2.0
CREATION_DATE  = 
ORIGINATOR     = 

OBJECT_NAME    = INTERCOSMOS 25
OBJECT_ID      = 1991-086A
CENTER_NAME    = EARTH
REF_FRAME      = TEME
TIME_SYSTEM    = UTC
MEAN_ELEMENT_THEORY = SGP/SGP4

EPOCH          = 2025-12-31T05:04:45.543936
MEAN_MOTION    = 12.11805600
ECCENTRICITY   = .14861373
INCLINATION    = 82.6077
RA_OF_ASC_NODE = 351.4022
ARG_OF_PERICENTER = 264.5560
MEAN_ANOMALY   = 78.4827

EPHEMERIS_TYPE = 0
CLASSIFICATION_TYPE = U
NORAD_CAT_ID   = 21819
ELEMENT_SET_NO = 999
REV_AT_EPOCH   = 48839
BSTAR          = .51424899E-3
MEAN_MOTION_DOT = .2582E-4
MEAN_MOTION_DDOT = 0

CCSDS_OMM_VERS = 2.0
CREATION_DATE  = 
ORIGINATOR     = 

OBJECT_NAME    = SL-8 R/B
OBJECT_ID      = 1992-008B
CENTER_NAME    = EARTH
REF_FRAME      = TEME
TIME_SYSTEM    = UTC
MEAN_ELEMENT_THEORY = SGP/SGP4

EPOCH          = 2025-12-31T07:35:03.377184
MEAN_MOTION    = 13.75963493
ECCENTRICITY   = .0034019
INCLINATION    = 82.9279
RA_OF_ASC_NODE = 318.6295
ARG_OF_PERICENTER = 327.8303
MEAN_ANOMALY   = 197.2531

EPHEMERIS_TYPE = 0
CLASSIFICATION_TYPE = U
NORAD_CAT_ID   = 21876
ELEMENT_SET_NO = 999
REV_AT_EPOCH   = 70001
BSTAR          = .15584572E-3
MEAN_MOTION_DOT = .167E-5
MEAN_MOTION_DDOT = 0

CCSDS_OMM_VERS = 2.0
CREATION_DATE  = 
ORIGINATOR     = 

OBJECT_NAME    = SL-8 R/B
OBJECT_ID      = 1992-020B
CENTER_NAME    = EARTH
REF_FRAME      = TEME
TIME_SYSTEM    = UTC
MEAN_ELEMENT_THEORY = SGP/SGP4

EPOCH          = 2025-12-31T02:40:41.932416
MEAN_MOTION    = 13.75532702
ECCENTRICITY   = .00299531
INCLINATION    = 82.9289
RA_OF_ASC_NODE = 204.6745
ARG_OF_PERICENTER = 127.7618
MEAN_ANOMALY   = 356.6972

EPHEMERIS_TYPE = 0
CLASSIFICATION_TYPE = U
NORAD_CAT_ID   = 21938
ELEMENT_SET_NO = 999
REV_AT_EPOCH   = 69170
BSTAR          = .23094672E-3
MEAN_MOTION_DOT = .238E-5
MEAN_MOTION_DDOT = 0

CCSDS_OMM_VERS = 2.0
CREATION_DATE  = 
ORIGINATOR     = 

OBJECT_NAME    = USA 81
OBJECT_ID      = 1992-023A
CENTER_NAME    = EARTH
REF_FRAME      = TEME
TIME_SYSTEM    = UTC
MEAN_ELEMENT_THEORY = SGP/SGP4

EPOCH          = 2025-12-30T23:42:37.882944
MEAN_MOTION    = 14.32335052
ECCENTRICITY   = .00010785
INCLINATION    = 85.0086
RA_OF_ASC_NODE = 171.0519
ARG_OF_PERICENTER = 100.2057
MEAN_ANOMALY   = 259.9257

EPHEMERIS_TYPE = 0
CLASSIFICATION_TYPE = U
NORAD_CAT_ID   = 21949
ELEMENT_SET_NO = 999
REV_AT_EPOCH   = 8495
BSTAR          = .13419506E-3
MEAN_MOTION_DOT = .382E-5
MEAN_MOTION_DDOT = 0

CCSDS_OMM_VERS = 2.0
CREATION_DATE  = 
ORIGINATOR     = 

OBJECT_NAME    = COSMOS 2219
OBJECT_ID      = 1992-076A
CENTER_NAME    = EARTH
REF_FRAME      = TEME
TIME_SYSTEM    = UTC
MEAN_ELEMENT_THEORY = SGP/SGP4

EPOCH          = 2025-12-30T20:00:45.631008
MEAN_MOTION    = 14.14073347
ECCENTRICITY   = .0019813
INCLINATION    = 71.0596
RA_OF_ASC_NODE = 162.0084
ARG_OF_PERICENTER = 301.9686
MEAN_ANOMALY   = 57.9510

EPHEMERIS_TYPE = 0
CLASSIFICATION_TYPE = U
NORAD_CAT_ID   = 22219
ELEMENT_SET_NO = 999
REV_AT_EPOCH   = 70864
BSTAR          = .26087E-3
MEAN_MOTION_DOT = .45E-5
MEAN_MOTION_DDOT = 0

CCSDS_OMM_VERS = 2.0
CREATION_DATE  = 
ORIGINATOR     = 

OBJECT_NAME    = SL-16 R/B
OBJECT_ID      = 1992-076B
CENTER_NAME    = EARTH
REF_FRAME      = TEME
TIME_SYSTEM    = UTC
MEAN_ELEMENT_THEORY = SGP/SGP4

EPOCH          = 2025-12-31T07:03:01.846368
MEAN_MOTION    = 14.16845773
ECCENTRICITY   = .00138971
INCLINATION    = 71.0012
RA_OF_ASC_NODE = 332.4474
ARG_OF_PERICENTER = 209.1409
MEAN_ANOMALY   = 256.1258

EPHEMERIS_TYPE = 0
CLASSIFICATION_TYPE = U
NORAD_CAT_ID   = 22220
ELEMENT_SET_NO = 999
REV_AT_EPOCH   = 71214
BSTAR          = -.40111031E-4
MEAN_MOTION_DOT = -.128E-5
MEAN_MOTION_DDOT = 0

CCSDS_OMM_VERS = 2.0
CREATION_DATE  = 
ORIGINATOR     = 

OBJECT_NAME    = COSMOS 2221
OBJECT_ID      = 1992-080A
CENTER_NAME    = EARTH
REF_FRAME      = TEME
TIME_SYSTEM    = UTC
MEAN_ELEMENT_THEORY = SGP/SGP4

EPOCH          = 2025-12-31T00:19:25.926528
MEAN_MOTION    = 14.95845867
ECCENTRICITY   = .0016204
INCLINATION    = 82.5040
RA_OF_ASC_NODE = 344.8328
ARG_OF_PERICENTER = 66.1586
MEAN_ANOMALY   = 294.1332

EPHEMERIS_TYPE = 0
CLASSIFICATION_TYPE = U
NORAD_CAT_ID   = 22236
ELEMENT_SET_NO = 999
REV_AT_EPOCH   = 77052
BSTAR          = .37474452E-3
MEAN_MOTION_DOT = .4221E-4
MEAN_MOTION_DDOT = 0

CCSDS_OMM_VERS = 2.0
CREATION_DATE  = 
ORIGINATOR     = 

OBJECT_NAME    = SL-16 R/B
OBJECT_ID      = 1992-093B
CENTER_NAME    = EARTH
REF_FRAME      = TEME
TIME_SYSTEM    = UTC
MEAN_ELEMENT_THEORY = SGP/SGP4

EPOCH          = 2025-12-30T20:03:35.527968
MEAN_MOTION    = 14.15434850
ECCENTRICITY   = .0002806
INCLINATION    = 71.0212
RA_OF_ASC_NODE = 148.8090
ARG_OF_PERICENTER = 18.3933
MEAN_ANOMALY   = 341.7291

EPHEMERIS_TYPE = 0
CLASSIFICATION_TYPE = U
NORAD_CAT_ID   = 22285
ELEMENT_SET_NO = 999
REV_AT_EPOCH   = 70341
BSTAR          = -.52623E-4
MEAN_MOTION_DOT = -.15E-5
MEAN_MOTION_DDOT = 0

CCSDS_OMM_VERS = 2.0
CREATION_DATE  = 
ORIGINATOR     = 

OBJECT_NAME    = COSMOS 2228
OBJECT_ID      = 1992-094A
CENTER_NAME    = EARTH
REF_FRAME      = TEME
TIME_SYSTEM    = UTC
MEAN_ELEMENT_THEORY = SGP/SGP4

EPOCH          = 2025-12-31T06:36:20.639232
MEAN_MOTION    = 14.96829110
ECCENTRICITY   = .00182219
INCLINATION    = 82.5189
RA_OF_ASC_NODE = 302.7990
ARG_OF_PERICENTER = 166.5647
MEAN_ANOMALY   = 193.6065

EPHEMERIS_TYPE = 0
CLASSIFICATION_TYPE = U
NORAD_CAT_ID   = 22286
ELEMENT_SET_NO = 999
REV_AT_EPOCH   = 76582
BSTAR          = .34086251E-3
MEAN_MOTION_DOT = .3942E-4
MEAN_MOTION_DDOT = 0

